*******************************************************************************
JPL/HORIZONS           Shoemaker-Levy 9 (D/1993 F2-N)      2023-May-07 18:36:25
Rec #:90002143 (+COV)           Soln.date: -                  n.a. (span: n.a.)
 
IAU76/J2000 helio. ecliptic osc. elements (au, days, deg., period=Julian yrs):
 
  EPOCH=  2449480.5 ! 1994-May-08.0000000 (TDB)    RMSW= n.a.
   EC= .2082768876019644   QR= 5.379536292617222   TP= 2449441.1344815274
   OM= 220.8862695672824   W= 354.9999828227799    IN= 5.840457677456903
   A= 6.794719275433608    MA= 2.19059842919538    ADIST= 8.209902258249993
   PER= 17.711913396814    N= .055647646           ANGMOM= .043856816
   DAN= 5.38307            DDN= 8.201689999999999  L= 215.9120764
   B= -.5081568            MOID= 4.3730402         TP= 1994-Mar-29.6344815274
 
Comet physical (GM= km^3/s^2; RAD= km):
   GM= n.a.                RAD= n.a.
   M1=  n.a.     M2=  n.a.     k1= n.a.    k2= n.a.     PHCOF= n.a.
 
COMET comments 
1: soln ref.= JPL#N36
2: Valid 1992-Jul-15_00:00 to 1994-Jul-20_10:31 UTC ERT
*******************************************************************************


*******************************************************************************
Ephemeris / WWW_USER Sun May  7 18:36:26 2023 Pasadena, USA      / Horizons
*******************************************************************************
Target body name: Shoemaker-Levy 9 (D/1993 F2-N)  {source: DASTCOM}
Center body name: Jupiter (599)                   {source: jup365_merged}
Center-site name: BODY CENTER
*******************************************************************************
Start time      : A.D. 1993-Mar-15 00:00:00.0000 TDB
Stop  time      : A.D. 1994-Jul-20 10:31:00.0000 TDB
Step-size       : 360 minutes
*******************************************************************************
Center geodetic : 0.0, 0.0, 0.0                   {W-lon(deg),Lat(deg),Alt(km)}
Center cylindric: 0.0, 0.0, 0.0                   {W-lon(deg),Dxy(km),Dz(km)}
Center radii    : 71492.0, 71492.0, 66854.0 km    {Equator_a, b, pole_c}
Small perturbers: Yes                             {source: SB441-N16}
Output units    : KM-S
Calendar mode   : Mixed Julian/Gregorian
Output type     : GEOMETRIC cartesian states
Output format   : 1 (position only)
Reference frame : Ecliptic of J2000.0
*******************************************************************************
Initial IAU76/J2000 heliocentric ecliptic osculating elements (au, days, deg.):
  EPOCH=  2449480.5 ! 1994-May-08.0000000 (TDB)    RMSW= n.a.                  
   EC= .2082768876019644   QR= 5.379536292617222   TP= 2449441.1344815274      
   OM= 220.8862695672824   W= 354.9999828227799    IN= 5.840457677456903       
  Equivalent ICRF heliocentric cartesian coordinates (au, au/d):
   X=-4.163454998609240E+00  Y=-3.121854651198700E+00  Z=-1.369973053771807E+00
  VX= 5.069981381991761E-03 VY=-6.135121097034884E-03 VZ=-1.756574830154064E-03
Comet physical (GM= km^3/s^2; RAD= km):                                        
   GM= n.a.                RAD= n.a.                                           
   M1=  n.a.     M2=  n.a.     k1= n.a.    k2= n.a.     PHCOF= n.a.            
*******************************************************************************
            JDTDB,            Calendar Date (TDB),                      X,                      Y,                      Z,
**************************************************************************************************************************
$$SOE
2449542.500000000, A.D. 1994-Jul-09 00:00:00.0000, -1.366803379493237E+06,  4.881383645990847E+06, -6.104758469376563E+06,
2449542.750000000, A.D. 1994-Jul-09 06:00:00.0000, -1.344672349841595E+06,  4.806167169433277E+06, -6.022880803973777E+06,
2449543.000000000, A.D. 1994-Jul-09 12:00:00.0000, -1.322371639656425E+06,  4.730348967058960E+06, -5.940258558669293E+06,
2449543.250000000, A.D. 1994-Jul-09 18:00:00.0000, -1.299888882914782E+06,  4.653919350708586E+06, -5.856868525297543E+06,
2449543.500000000, A.D. 1994-Jul-10 00:00:00.0000, -1.277220908621073E+06,  4.576871699561310E+06, -5.772686217045607E+06,
2449543.750000000, A.D. 1994-Jul-10 06:00:00.0000, -1.254373311031818E+06,  4.499193360888822E+06, -5.687686075328393E+06,
2449544.000000000, A.D. 1994-Jul-10 12:00:00.0000, -1.231353339018226E+06,  4.420860218888121E+06, -5.601841440115307E+06,
2449544.250000000, A.D. 1994-Jul-10 18:00:00.0000, -1.208161101653814E+06,  4.341838444874593E+06, -5.515124231025018E+06,
2449544.500000000, A.D. 1994-Jul-11 00:00:00.0000, -1.184785024115682E+06,  4.262092483940335E+06, -5.427504456809187E+06,
2449544.750000000, A.D. 1994-Jul-11 06:00:00.0000, -1.161205269216061E+06,  4.181593970164910E+06, -5.338949791295422E+06,
2449545.000000000, A.D. 1994-Jul-11 12:00:00.0000, -1.137403142345428E+06,  4.100324576851593E+06, -5.249425430097992E+06,
2449545.250000000, A.D. 1994-Jul-11 18:00:00.0000, -1.113369102622509E+06,  4.018270347115567E+06, -5.158894203627130E+06,
2449545.500000000, A.D. 1994-Jul-12 00:00:00.0000, -1.089103423604250E+06,  3.935412163672195E+06, -5.067316692429280E+06,
2449545.750000000, A.D. 1994-Jul-12 06:00:00.0000, -1.064609695523977E+06,  3.851719273057861E+06, -4.974651099932161E+06,
2449546.000000000, A.D. 1994-Jul-12 12:00:00.0000, -1.039885972777128E+06,  3.767149799349919E+06, -4.880852809243690E+06,
2449546.250000000, A.D. 1994-Jul-12 18:00:00.0000, -1.014919478968978E+06,  3.681657771104673E+06, -4.785873720556917E+06,
2449546.500000000, A.D. 1994-Jul-13 00:00:00.0000, -9.896890009895563E+05,  3.595201728026156E+06, -4.689661595747969E+06,
2449546.750000000, A.D. 1994-Jul-13 06:00:00.0000, -9.641735177896023E+05,  3.507747895191930E+06, -4.592159626954455E+06,
2449547.000000000, A.D. 1994-Jul-13 12:00:00.0000, -9.383600511525869E+05,  3.419264956894347E+06, -4.493306221204945E+06,
2449547.250000000, A.D. 1994-Jul-13 18:00:00.0000, -9.122444845299721E+05,  3.329714645388679E+06, -4.393034748774955E+06,
2449547.500000000, A.D. 1994-Jul-14 00:00:00.0000, -8.858252090945244E+05,  3.239045010418021E+06, -4.291272995607065E+06,
2449547.750000000, A.D. 1994-Jul-14 06:00:00.0000, -8.590941396462917E+05,  3.147190530976329E+06, -4.187942218398757E+06,
2449548.000000000, A.D. 1994-Jul-14 12:00:00.0000, -8.320310874727964E+05,  3.054078838020053E+06, -4.082955871173399E+06,
2449548.250000000, A.D. 1994-Jul-14 18:00:00.0000, -8.046058087550402E+05,  2.959639317296306E+06, -3.976218198429751E+06,
2449548.500000000, A.D. 1994-Jul-15 00:00:00.0000, -7.767867480205297E+05,  2.863806435385951E+06, -3.867622888824577E+06,
2449548.750000000, A.D. 1994-Jul-15 06:00:00.0000, -7.485495457204580E+05,  2.766514281365113E+06, -3.757051755457974E+06,
2449549.000000000, A.D. 1994-Jul-15 12:00:00.0000, -7.198786933938265E+05,  2.667686058834461E+06, -3.644373141459327E+06,
2449549.250000000, A.D. 1994-Jul-15 18:00:00.0000, -6.907615642457008E+05,  2.567225444304988E+06, -3.529439698219299E+06,
2449549.500000000, A.D. 1994-Jul-16 00:00:00.0000, -6.611791086783409E+05,  2.465014288074626E+06, -3.412085309360028E+06,
2449549.750000000, A.D. 1994-Jul-16 06:00:00.0000, -6.310991067223549E+05,  2.360916833743590E+06, -3.292121059120308E+06,
2449550.000000000, A.D. 1994-Jul-16 12:00:00.0000, -6.004766456829309E+05,  2.254786018258660E+06, -3.169330218320403E+06,
2449550.250000000, A.D. 1994-Jul-16 18:00:00.0000, -5.692613372112513E+05,  2.146464603307744E+06, -3.043462140409549E+06,
2449550.500000000, A.D. 1994-Jul-17 00:00:00.0000, -5.374047316416502E+05,  2.035776927283625E+06, -2.914224607257198E+06,
2449550.750000000, A.D. 1994-Jul-17 06:00:00.0000, -5.048610181910992E+05,  1.922514188282180E+06, -2.781273662560031E+06,
2449551.000000000, A.D. 1994-Jul-17 12:00:00.0000, -4.715797859835625E+05,  1.806419543651694E+06, -2.644199541595907E+06,
2449551.250000000, A.D. 1994-Jul-17 18:00:00.0000, -4.374946832094193E+05,  1.687176914564024E+06, -2.502506814052968E+06,
2449551.500000000, A.D. 1994-Jul-18 00:00:00.0000, -4.025136463718414E+05,  1.564402607836046E+06, -2.355585937638512E+06,
2449551.750000000, A.D. 1994-Jul-18 06:00:00.0000, -3.665150769519806E+05,  1.437633408636580E+06, -2.202671596693744E+06,
2449552.000000000, A.D. 1994-Jul-18 12:00:00.0000, -3.293492247506380E+05,  1.306300080345583E+06, -2.042779523111769E+06,
2449552.250000000, A.D. 1994-Jul-18 18:00:00.0000, -2.908370992941856E+05,  1.169674716878440E+06, -1.874605836888473E+06,
2449552.500000000, A.D. 1994-Jul-19 00:00:00.0000, -2.507572604489326E+05,  1.026780947109980E+06, -1.696356439969453E+06,
2449552.750000000, A.D. 1994-Jul-19 06:00:00.0000, -2.088137714856863E+05,  8.762449259363650E+05, -1.505434999649976E+06,
2449553.000000000, A.D. 1994-Jul-19 12:00:00.0000, -1.645783405005932E+05,  7.160245079448238E+05, -1.297811930626022E+06,
2449553.250000000, A.D. 1994-Jul-19 18:00:00.0000, -1.173874302942753E+05,  5.428340058406304E+05, -1.066549076255381E+06,
2449553.500000000, A.D. 1994-Jul-20 00:00:00.0000, -6.613819141030312E+04,  3.506412638969655E+05, -7.974462155721150E+05,
2449553.750000000, A.D. 1994-Jul-20 06:00:00.0000, -8.998539787888527E+03,  1.252394525632162E+05, -4.485072392620494E+05,
